start=new Date('2022-03-28T00:00:00.000Z').valueOf();
sats=[{"OBJECT_NAME":"STARLINK-1630","REV_AT_EPOCH":"8986","PERIAPSIS":"545.940","ECCENTRICITY":"0.00018420","RA_OF_ASC_NODE":"313.6012","REF_FRAME":"TEME","MEAN_ELEMENT_THEORY":"SGP4","PERIOD":"95.592","ELEMENT_SET_NO":"999","MEAN_MOTION_DOT":"0.00003027","CENTER_NAME":"EARTH","COUNTRY_CODE":"US","INCLINATION":"53.0547","GP_ID":"199860936","MEAN_MOTION":"15.06399311","CLASSIFICATION_TYPE":"U","APOAPSIS":"548.491","SITE":"AFETR","EPHEMERIS_TYPE":"0","SEMIMAJOR_AXIS":"6925.351","TLE_LINE2":"2 46132  53.0547 313.6012 0001842  60.8613 299.2560 15.06399311 89869","TLE_LINE1":"1 46132U 20057R   22086.89101208  .00003027  00000-0  22204-3 0  9992","MEAN_ANOMALY":"299.2560","DECAY_DATE":null,"BSTAR":"0.00022204000000","MEAN_MOTION_DDOT":"0.0000000000000","FILE":"3377053","ARG_OF_PERICENTER":"60.8613","OBJECT_TYPE":"PAYLOAD","LAUNCH_DATE":"2020-08-18","TIME_SYSTEM":"UTC","NORAD_CAT_ID":"46132","RCS_SIZE":"LARGE","EPOCH":"2022-03-27T21:23:03.443712","OBJECT_ID":"2020-057R"},{"OBJECT_ID":"2020-057S","NORAD_CAT_ID":"46133","TIME_SYSTEM":"UTC","RCS_SIZE":"LARGE","EPOCH":"2022-03-27T21:23:02.740416","OBJECT_TYPE":"PAYLOAD","LAUNCH_DATE":"2020-08-18","ARG_OF_PERICENTER":"69.4740","FILE":"3377053","MEAN_MOTION_DDOT":"0.0000000000000","TLE_LINE2":"2 46133  53.0525 273.5792 0001536  69.4740 290.6414 15.06404808 90415","TLE_LINE1":"1 46133U 20057S   22086.89100394  .00003021  00000-0  22158-3 0  9990","MEAN_ANOMALY":"290.6414","SEMIMAJOR_AXIS":"6925.334","BSTAR":"0.00022158000000","DECAY_DATE":null,"EPHEMERIS_TYPE":"0","APOAPSIS":"548.263","SITE":"AFETR","CLASSIFICATION_TYPE":"U","INCLINATION":"53.0525","MEAN_MOTION":"15.06404808","GP_ID":"199861188","COUNTRY_CODE":"US","CENTER_NAME":"EARTH","ELEMENT_SET_NO":"999","MEAN_ELEMENT_THEORY":"SGP4","PERIOD":"95.592","MEAN_MOTION_DOT":"0.00003021","RA_OF_ASC_NODE":"273.5792","PERIAPSIS":"546.135","ECCENTRICITY":"0.00015360","REF_FRAME":"TEME","REV_AT_EPOCH":"9041","OBJECT_NAME":"STARLINK-1637"},{"LAUNCH_DATE":"2020-08-18","OBJECT_TYPE":"PAYLOAD","ARG_OF_PERICENTER":"73.3079","FILE":"3377053","OBJECT_ID":"2020-057T","RCS_SIZE":"LARGE","EPOCH":"2022-03-27T21:28:20.982720","TIME_SYSTEM":"UTC","NORAD_CAT_ID":"46134","EPHEMERIS_TYPE":"0","SITE":"AFETR","APOAPSIS":"548.101","MEAN_MOTION_DDOT":"0.0000000000000","DECAY_DATE":null,"BSTAR":"0.00037933000000","SEMIMAJOR_AXIS":"6925.317","TLE_LINE2":"2 46134  53.0521 273.5673 0001326  73.3079 286.8056 15.06410207 89165","TLE_LINE1":"1 46134U 20057T   22086.89468730  .00005375  00000-0  37933-3 0  9993","MEAN_ANOMALY":"286.8056","CLASSIFICATION_TYPE":"U","MEAN_MOTION_DOT":"0.00005375","PERIOD":"95.591","MEAN_ELEMENT_THEORY":"SGP4","ELEMENT_SET_NO":"999","OBJECT_NAME":"STARLINK-1638","REV_AT_EPOCH":"8916","REF_FRAME":"TEME","PERIAPSIS":"546.264","RA_OF_ASC_NODE":"273.5673","ECCENTRICITY":"0.00013260","GP_ID":"199861425","MEAN_MOTION":"15.06410207","INCLINATION":"53.0521","CENTER_NAME":"EARTH","COUNTRY_CODE":"US"},{"MEAN_MOTION":"15.06404636","GP_ID":"199860187","INCLINATION":"53.0537","COUNTRY_CODE":"US","CENTER_NAME":"EARTH","MEAN_MOTION_DOT":"0.00003242","ELEMENT_SET_NO":"999","PERIOD":"95.592","MEAN_ELEMENT_THEORY":"SGP4","RA_OF_ASC_NODE":"274.1036","PERIAPSIS":"546.143","REF_FRAME":"TEME","ECCENTRICITY":"0.00015250","REV_AT_EPOCH":"8914","OBJECT_NAME":"STARLINK-1639","CLASSIFICATION_TYPE":"U","MEAN_MOTION_DDOT":"0.0000000000000","BSTAR":"0.00023640000000","DECAY_DATE":null,"MEAN_ANOMALY":"293.4846","TLE_LINE2":"2 46135  53.0537 274.1036 0001525  66.6303 293.4846 15.06404636 89147","TLE_LINE1":"1 46135U 20057U   22086.77674276  .00003242  00000-0  23640-3 0  9996","SEMIMAJOR_AXIS":"6925.334","EPHEMERIS_TYPE":"0","APOAPSIS":"548.255","SITE":"AFETR","OBJECT_ID":"2020-057U","RCS_SIZE":"LARGE","EPOCH":"2022-03-27T18:38:30.574464","NORAD_CAT_ID":"46135","TIME_SYSTEM":"UTC","LAUNCH_DATE":"2020-08-18","OBJECT_TYPE":"PAYLOAD","FILE":"3377053","ARG_OF_PERICENTER":"66.6303"},{"LAUNCH_DATE":"2020-08-18","OBJECT_TYPE":"PAYLOAD","ARG_OF_PERICENTER":"55.5905","FILE":"3377053","OBJECT_ID":"2020-057V","EPOCH":"2022-03-27T19:48:50.486112","RCS_SIZE":"LARGE","NORAD_CAT_ID":"46136","TIME_SYSTEM":"UTC","EPHEMERIS_TYPE":"0","APOAPSIS":"548.364","SITE":"AFETR","MEAN_MOTION_DDOT":"0.0000000000000","BSTAR":"0.00002895200000","DECAY_DATE":null,"TLE_LINE1":"1 46136U 20057V   22086.82558433  .00000150  00000-0  28952-4 0  9996","TLE_LINE2":"2 46136  53.0534 303.8838 0001620  55.5905 304.5237 15.06390850 88730","MEAN_ANOMALY":"304.5237","SEMIMAJOR_AXIS":"6925.377","CLASSIFICATION_TYPE":"U","MEAN_MOTION_DOT":"0.00000150","ELEMENT_SET_NO":"999","MEAN_ELEMENT_THEORY":"SGP4","PERIOD":"95.593","PERIAPSIS":"546.120","REF_FRAME":"TEME","RA_OF_ASC_NODE":"303.8838","ECCENTRICITY":"0.00016200","OBJECT_NAME":"STARLINK-1643","REV_AT_EPOCH":"8873","MEAN_MOTION":"15.06390850","GP_ID":"199860437","INCLINATION":"53.0534","COUNTRY_CODE":"US","CENTER_NAME":"EARTH"},{"OBJECT_ID":"2020-057W","TIME_SYSTEM":"UTC","NORAD_CAT_ID":"46137","EPOCH":"2022-03-27T20:16:42.432384","RCS_SIZE":"LARGE","OBJECT_TYPE":"PAYLOAD","LAUNCH_DATE":"2020-08-18","ARG_OF_PERICENTER":"54.4007","FILE":"3377053","MEAN_MOTION_DDOT":"0.0000000000000","SEMIMAJOR_AXIS":"6925.380","TLE_LINE2":"2 46137  53.0556 293.7991 0001844  54.4007 305.7154 15.06389634 88875","TLE_LINE1":"1 46137U 20057W   22086.84493556 -.00001028  00000-0 -50138-4 0  9991","MEAN_ANOMALY":"305.7154","DECAY_DATE":null,"BSTAR":"-0.00005013800000","EPHEMERIS_TYPE":"0","SITE":"AFETR","APOAPSIS":"548.522","CLASSIFICATION_TYPE":"U","INCLINATION":"53.0556","GP_ID":"199861688","MEAN_MOTION":"15.06389634","CENTER_NAME":"EARTH","COUNTRY_CODE":"US","MEAN_ELEMENT_THEORY":"SGP4","PERIOD":"95.593","ELEMENT_SET_NO":"999","MEAN_MOTION_DOT":"-0.00001028","REV_AT_EPOCH":"8887","OBJECT_NAME":"STARLINK-1586","REF_FRAME":"TEME","PERIAPSIS":"545.968","RA_OF_ASC_NODE":"293.7991","ECCENTRICITY":"0.00018440"},{"EPHEMERIS_TYPE":"0","APOAPSIS":"548.465","SITE":"AFETR","MEAN_MOTION_DDOT":"0.0000000000000","DECAY_DATE":null,"BSTAR":"0.00053838000000","SEMIMAJOR_AXIS":"6925.344","TLE_LINE1":"1 46138U 20057X   22086.90943090  .00007747  00000-0  53838-3 0  9993","TLE_LINE2":"2 46138  53.0548 313.5084 0001813  55.3516 304.7643 15.06401423 88606","MEAN_ANOMALY":"304.7643","LAUNCH_DATE":"2020-08-18","OBJECT_TYPE":"PAYLOAD","FILE":"3377053","ARG_OF_PERICENTER":"55.3516","OBJECT_ID":"2020-057X","RCS_SIZE":"LARGE","EPOCH":"2022-03-27T21:49:34.829760","TIME_SYSTEM":"UTC","NORAD_CAT_ID":"46138","MEAN_MOTION_DOT":"0.00007747","PERIOD":"95.592","MEAN_ELEMENT_THEORY":"SGP4","ELEMENT_SET_NO":"999","OBJECT_NAME":"STARLINK-1590","REV_AT_EPOCH":"8860","PERIAPSIS":"545.954","RA_OF_ASC_NODE":"313.5084","REF_FRAME":"TEME","ECCENTRICITY":"0.00018130","GP_ID":"199861925","MEAN_MOTION":"15.06401423","INCLINATION":"53.0548","CENTER_NAME":"EARTH","COUNTRY_CODE":"US","CLASSIFICATION_TYPE":"U"},{"SEMIMAJOR_AXIS":"6925.328","TLE_LINE2":"2 46140  53.0528 273.6870 0001852  53.1616 306.9542 15.06406849 90428","TLE_LINE1":"1 46140U 20057Z   22086.86888577  .00004249  00000-0  30390-3 0  9991","MEAN_ANOMALY":"306.9542","DECAY_DATE":null,"BSTAR":"0.00030390000000","MEAN_MOTION_DDOT":"0.0000000000000","APOAPSIS":"548.475","SITE":"AFETR","EPHEMERIS_TYPE":"0","TIME_SYSTEM":"UTC","NORAD_CAT_ID":"46140","RCS_SIZE":"LARGE","EPOCH":"2022-03-27T20:51:11.730528","OBJECT_ID":"2020-057Z","ARG_OF_PERICENTER":"53.1616","FILE":"3377053","OBJECT_TYPE":"PAYLOAD","LAUNCH_DATE":"2020-08-18","CENTER_NAME":"EARTH","COUNTRY_CODE":"US","INCLINATION":"53.0528","GP_ID":"199860687","MEAN_MOTION":"15.06406849","REV_AT_EPOCH":"9042","OBJECT_NAME":"STARLINK-1594","PERIAPSIS":"545.910","REF_FRAME":"TEME","RA_OF_ASC_NODE":"273.6870","ECCENTRICITY":"0.00018520","MEAN_ELEMENT_THEORY":"SGP4","PERIOD":"95.592","ELEMENT_SET_NO":"999","MEAN_MOTION_DOT":"0.00004249","CLASSIFICATION_TYPE":"U"},{"CLASSIFICATION_TYPE":"U","REV_AT_EPOCH":"8915","OBJECT_NAME":"STARLINK-1596","PERIAPSIS":"546.223","RA_OF_ASC_NODE":"273.7862","ECCENTRICITY":"0.00014200","REF_FRAME":"TEME","PERIOD":"95.592","MEAN_ELEMENT_THEORY":"SGP4","ELEMENT_SET_NO":"999","MEAN_MOTION_DOT":"0.00002948","CENTER_NAME":"EARTH","COUNTRY_CODE":"US","INCLINATION":"53.0530","GP_ID":"199860937","MEAN_MOTION":"15.06402476","ARG_OF_PERICENTER":"69.8897","FILE":"3377053","OBJECT_TYPE":"PAYLOAD","LAUNCH_DATE":"2020-08-18","TIME_SYSTEM":"UTC","NORAD_CAT_ID":"46141","RCS_SIZE":"LARGE","EPOCH":"2022-03-27T20:19:21.102528","OBJECT_ID":"2020-057AA","APOAPSIS":"548.189","SITE":"AFETR","EPHEMERIS_TYPE":"0","SEMIMAJOR_AXIS":"6925.341","TLE_LINE2":"2 46141  53.0530 273.7862 0001420  69.8897 290.2245 15.06402476 89155","MEAN_ANOMALY":"290.2245","TLE_LINE1":"1 46141U 20057AA  22086.84677202  .00002948  00000-0  21672-3 0  9998","DECAY_DATE":null,"BSTAR":"0.00021672000000","MEAN_MOTION_DDOT":"0.0000000000000"},{"SITE":"AFETR","APOAPSIS":"548.254","EPHEMERIS_TYPE":"0","BSTAR":"0.00003523400000","DECAY_DATE":null,"TLE_LINE1":"1 46142U 20057AB  22086.93155443  .00000243  00000-0  35234-4 0  9993","TLE_LINE2":"2 46142  53.0548 313.4166 0001466  68.5166 291.5979 15.06391739 88605","MEAN_ANOMALY":"291.5979","SEMIMAJOR_AXIS":"6925.374","MEAN_MOTION_DDOT":"0.0000000000000","ARG_OF_PERICENTER":"68.5166","FILE":"3377053","LAUNCH_DATE":"2020-08-18","OBJECT_TYPE":"PAYLOAD","EPOCH":"2022-03-27T22:21:26.302752","RCS_SIZE":"LARGE","NORAD_CAT_ID":"46142","TIME_SYSTEM":"UTC","OBJECT_ID":"2020-057AB","ECCENTRICITY":"0.00014660","PERIAPSIS":"546.224","RA_OF_ASC_NODE":"313.4166","REF_FRAME":"TEME","OBJECT_NAME":"STARLINK-1597","REV_AT_EPOCH":"8860","MEAN_MOTION_DOT":"0.00000243","ELEMENT_SET_NO":"999","PERIOD":"95.593","MEAN_ELEMENT_THEORY":"SGP4","COUNTRY_CODE":"US","CENTER_NAME":"EARTH","MEAN_MOTION":"15.06391739","GP_ID":"199861189","INCLINATION":"53.0548","CLASSIFICATION_TYPE":"U"}];
